STARLINK-3136
1 19443C 21104AM  21326.14653248 -.00861473  00000-0 -31643-2 0  3263
2 19443  53.2176  90.8171 0024662  64.7283 237.2754 15.87897477    10
